{
    "satellites": [
        {
            "name": "starlink309",
            "title": "Starlink-309 (G10-52)",
            "tle": [
                "1 66031C 25232AC  25300.05326389 -.01928500  00000+0 -98902-2 0  3008",
                "2 66031  53.1549   9.4149 0001145  73.8158  96.1491 15.82521577    19"
            ],
            "stdMag": 5,
            "noradId": "66031",
            "tleUrl": "http://celestrak.org/NORAD/elements/supplemental/sup-gp.php?FILE=starlink&FORMAT=tle",
            "launchDate": "2025-10-16T09:27:10.000Z",
            "active": true,
            "batch": [
                {
                    "noradId": "66031",
                    "tle": [
                        "1 66031C 25232AC  25300.05326389 -.01928500  00000+0 -98902-2 0  3008",
                        "2 66031  53.1549   9.4149 0001145  73.8158  96.1491 15.82521577    19"
                    ]
                },
                {
                    "noradId": "66032",
                    "tle": [
                        "1 66032C 25232AD  25300.04840278 -.01959500  00000+0 -10064-1 0  3002",
                        "2 66032  53.1546   9.4339 0001117  63.6821  81.0464 15.82523283    10"
                    ]
                },
                {
                    "noradId": "66030",
                    "tle": [
                        "1 66030C 25232AB  25300.04770833 -.01906100  00000+0 -97601-2 0  3000",
                        "2 66030  53.1543   9.4466 0001085  62.8823  73.2749 15.82531858    19"
                    ]
                },
                {
                    "noradId": "66029",
                    "tle": [
                        "1 66029C 25232AA  25300.04909722 -.01881400  00000+0 -96171-2 0  3005",
                        "2 66029  53.1548   9.4453 0000928  77.7748  63.8620 15.82543586    18"
                    ]
                },
                {
                    "noradId": "66028",
                    "tle": [
                        "1 66028C 25232Z   25300.04840278 -.01863400  00000+0 -95114-2 0  3000",
                        "2 66028  53.1548   9.4534 0001141  62.0924  73.2576 15.82555606    19"
                    ]
                },
                {
                    "noradId": "66027",
                    "tle": [
                        "1 66027C 25232Y   25300.04631944 -.01849200  00000+0 -94243-2 0  3001",
                        "2 66027  53.1547   9.4688 0001212  56.6796  64.4887 15.82574161    16"
                    ]
                },
                {
                    "noradId": "66026",
                    "tle": [
                        "1 66026C 25232X   25300.07062500 -.01831800  00000+0 -93515-2 0  3007",
                        "2 66026  53.1551   9.3521 0000947  69.9945 187.1248 15.82520423    18"
                    ]
                },
                {
                    "noradId": "66024",
                    "tle": [
                        "1 66024C 25232V   25300.04701389 -.01824300  00000+0 -92752-2 0  3006",
                        "2 66024  53.1547   9.4751 0001237  58.3756  62.0946 15.82600636    13"
                    ]
                },
                {
                    "noradId": "66025",
                    "tle": [
                        "1 66025C 25232W   25300.04840278 -.01810200  00000+0 -91866-2 0  3007",
                        "2 66025  53.1548   9.4729 0001266  67.5190  58.3403 15.82625528    19"
                    ]
                },
                {
                    "noradId": "66023",
                    "tle": [
                        "1 66023C 25232U   25300.04701389 -.01804400  00000+0 -91582-2 0  3004",
                        "2 66023  53.1549   9.4843 0001249  56.3286  59.6582 15.82618021    10"
                    ]
                },
                {
                    "noradId": "66022",
                    "tle": [
                        "1 66022C 25232T   25300.04631944 -.01795500  00000+0 -91071-2 0  3005",
                        "2 66022  53.1551   9.4924 0001221  52.8199  57.0386 15.82622934    18"
                    ]
                },
                {
                    "noradId": "66021",
                    "tle": [
                        "1 66021C 25232S   25300.05326389 -.01776200  00000+0 -90063-2 0  3005",
                        "2 66021  53.1545   9.4663 0000988  71.6319  73.3962 15.82609555    17"
                    ]
                },
                {
                    "noradId": "66020",
                    "tle": [
                        "1 66020C 25232R   25300.05256944 -.01787900  00000+0 -90799-2 0  3008",
                        "2 66020  53.1546   9.4651 0000977  73.9848  69.5099 15.82588478    12"
                    ]
                },
                {
                    "noradId": "66019",
                    "tle": [
                        "1 66019C 25232Q   25300.04979167 -.01725200  00000+0 -86991-2 0  3008",
                        "2 66019  53.1553   9.5080 0001166  54.9014  58.9610 15.82677132    17"
                    ]
                },
                {
                    "noradId": "66018",
                    "tle": [
                        "1 66018C 25232P   25300.05118056 -.01763900  00000+0 -89461-2 0  3004",
                        "2 66018  53.1551   9.4857 0001189  60.6197  68.5901 15.82592083    17"
                    ]
                },
                {
                    "noradId": "66017",
                    "tle": [
                        "1 66017C 25232N   25300.05395833 -.01771700  00000+0 -89925-2 0  3005",
                        "2 66017  53.1551   9.4674 0000981  73.6773  73.4839 15.82583746    17"
                    ]
                },
                {
                    "noradId": "66016",
                    "tle": [
                        "1 66016C 25232M   25300.04909722 -.01736800  00000+0 -87701-2 0  3003",
                        "2 66016  53.1549   9.5067 0001119  49.5077  62.8041 15.82658366    11"
                    ]
                },
                {
                    "noradId": "66015",
                    "tle": [
                        "1 66015C 25232L   25300.07062500 -.01748100  00000+0 -88724-2 0  3001",
                        "2 66015  53.1551   9.3936 0000975  73.3008 164.1547 15.82559684    14"
                    ]
                },
                {
                    "noradId": "66014",
                    "tle": [
                        "1 66014C 25232K   25300.04701389 -.01703600  00000+0 -85681-2 0  3007",
                        "2 66014  53.1549   9.5317 0000914  70.7064  22.7291 15.82711254    19"
                    ]
                },
                {
                    "noradId": "66011",
                    "tle": [
                        "1 66011C 25232G   25300.04909722 -.01713900  00000+0 -86333-2 0  3004",
                        "2 66011  53.1552   9.5168 0001203  54.2476  53.4048 15.82687554    16"
                    ]
                },
                {
                    "noradId": "66013",
                    "tle": [
                        "1 66013C 25232J   25300.05187500 -.01698700  00000+0 -85506-2 0  3000",
                        "2 66013  53.1553   9.5118 0001160  57.4613  61.6772 15.82687841    18"
                    ]
                },
                {
                    "noradId": "66012",
                    "tle": [
                        "1 66012C 25232H   25300.04840278 -.01687500  00000+0 -84813-2 0  3002",
                        "2 66012  53.1550   9.5338 0000945  71.5096  25.5579 15.82709490    19"
                    ]
                },
                {
                    "noradId": "66010",
                    "tle": [
                        "1 66010C 25232F   25300.04979167 -.01675600  00000+0 -84125-2 0  3004",
                        "2 66010  53.1552   9.5318 0001022  54.9131  47.7146 15.82720260    13"
                    ]
                },
                {
                    "noradId": "66009",
                    "tle": [
                        "1 66009C 25232E   25300.04701389 -.01664800  00000+0 -83485-2 0  3009",
                        "2 66009  53.1550   9.5504 0000790  81.7197   2.8452 15.82734834    11"
                    ]
                },
                {
                    "noradId": "66008",
                    "tle": [
                        "1 66008C 25232D   25300.04770833 -.01650500  00000+0 -82601-2 0  3009",
                        "2 66008  53.1549   9.5519 0000921  72.6815  13.2614 15.82763949    11"
                    ]
                },
                {
                    "noradId": "66007",
                    "tle": [
                        "1 66007C 25232C   25300.04909722 -.01640000  00000+0 -81976-2 0  3007",
                        "2 66007  53.1556   9.5507 0001129  56.7707  34.6852 15.82779673    11"
                    ]
                },
                {
                    "noradId": "66006",
                    "tle": [
                        "1 66006C 25232B   25300.04909722 -.01631900  00000+0 -81541-2 0  3003",
                        "2 66006  53.1553   9.5549 0001080  53.2217  36.1125 15.82778351    19"
                    ]
                },
                {
                    "noradId": "66005",
                    "tle": [
                        "1 66005C 25232A   25300.07201389 -.01616700  00000+0 -80820-2 0  3009",
                        "2 66005  53.1556   9.4456 0000997  67.7441 149.4957 15.82752191    17"
                    ]
                }
            ]
        }
    ],
    "config": {}
}